STARLINK-3141
1 19459C 21104BD  21326.07745971 -.00819061  00000-0 -29468-2 0  3265
2 19459  53.2178  91.1536 0026093  65.4075 208.1018 15.88206886    14
